{
  "type": "FeatureCollection",
  "features": [
    {
      "type": "Feature",
      "properties": {
        "norad_id": 34420,
        "name": "COSMOS 2251 DEB",
        "group": "cosmos-2251-debris",
        "lat": -25.59489530383273,
        "lon": 81.73410678081811,
        "alt_km": 713.5304587564897,
        "timestamp": "2025-12-20T03:42:47.788509+00:00",
        "meta_object_name": "COSMOS 2251 DEB",
        "meta_object_id": "1993-036RM",
        "meta_epoch": "2025-12-19T17:04:45.185376",
        "meta_mean_motion": 14.68316706,
        "meta_eccentricity": 0.010634,
        "meta_inclination": 74.0332,
        "meta_ra_of_asc_node": 90.4735,
        "meta_arg_of_pericenter": 209.9738,
        "meta_mean_anomaly": 301.2677,
        "meta_ephemeris_type": 0,
        "meta_classification_type": "U",
        "meta_norad_cat_id": 34420,
        "meta_element_set_no": 999,
        "meta_rev_at_epoch": 89872,
        "meta_bstar": 0.00016304,
        "meta_mean_motion_dot": 9.89e-06,
        "meta_mean_motion_ddot": 0,
        "tle_line1": "1 34420U 93036RM  25353.71163409  .00000989  00000+0  16304-3 0  9995",
        "tle_line2": "2 34420  74.0332  90.4735 0106340 209.9738 301.2677 14.68316706898726"
      },
      "geometry": {
        "type": "Point",
        "coordinates": [
          81.73410678081811,
          -25.59489530383273
        ]
      }
    },
    {
      "type": "Feature",
      "properties": {
        "norad_id": 34425,
        "name": "COSMOS 2251 DEB",
        "group": "cosmos-2251-debris",
        "lat": -68.7862666277222,
        "lon": -92.10974602493212,
        "alt_km": 693.3709854430008,
        "timestamp": "2025-12-20T03:42:47.788520+00:00",
        "meta_object_name": "COSMOS 2251 DEB",
        "meta_object_id": "1993-036RS",
        "meta_epoch": "2025-12-19T11:46:10.943616",
        "meta_mean_motion": 14.62163051,
        "meta_eccentricity": 0.0024449,
        "meta_inclination": 74.0195,
        "meta_ra_of_asc_node": 41.5772,
        "meta_arg_of_pericenter": 166.2561,
        "meta_mean_anomaly": 193.9277,
        "meta_ephemeris_type": 0,
        "meta_classification_type": "U",
        "meta_norad_cat_id": 34425,
        "meta_element_set_no": 999,
        "meta_rev_at_epoch": 88839,
        "meta_bstar": 0.00035926,
        "meta_mean_motion_dot": 1.785e-05,
        "meta_mean_motion_ddot": 0,
        "tle_line1": "1 34425U 93036RS  25353.49040444  .00001785  00000+0  35926-3 0  9994",
        "tle_line2": "2 34425  74.0195  41.5772 0024449 166.2561 193.9277 14.62163051888395"
      },
      "geometry": {
        "type": "Point",
        "coordinates": [
          -92.10974602493212,
          -68.7862666277222
        ]
      }
    },
    {
      "type": "Feature",
      "properties": {
        "norad_id": 34429,
        "name": "COSMOS 2251 DEB",
        "group": "cosmos-2251-debris",
        "lat": -45.938818546692914,
        "lon": 134.56135358245015,
        "alt_km": 433.6377753311117,
        "timestamp": "2025-12-20T03:42:47.788530+00:00",
        "meta_object_name": "COSMOS 2251 DEB",
        "meta_object_id": "1993-036RW",
        "meta_epoch": "2025-12-19T12:37:59.714112",
        "meta_mean_motion": 15.44301435,
        "meta_eccentricity": 0.0010491,
        "meta_inclination": 73.9675,
        "meta_ra_of_asc_node": 153.2196,
        "meta_arg_of_pericenter": 352.9418,
        "meta_mean_anomaly": 66.8806,
        "meta_ephemeris_type": 0,
        "meta_classification_type": "U",
        "meta_norad_cat_id": 34429,
        "meta_element_set_no": 999,
        "meta_rev_at_epoch": 89553,
        "meta_bstar": 0.0041473,
        "meta_mean_motion_dot": 0.00196298,
        "meta_mean_motion_ddot": 0,
        "tle_line1": "1 34429U 93036RW  25353.52638558  .00196298  00000+0  41473-2 0  9998",
        "tle_line2": "2 34429  73.9675 153.2196 0010491 352.9418  66.8806 15.44301435895539"
      },
      "geometry": {
        "type": "Point",
        "coordinates": [
          134.56135358245015,
          -45.938818546692914
        ]
      }
    },
    {
      "type": "Feature",
      "properties": {
        "norad_id": 34430,
        "name": "COSMOS 2251 DEB",
        "group": "cosmos-2251-debris",
        "lat": 21.915690967938634,
        "lon": 103.07501069267609,
        "alt_km": 799.5807896320093,
        "timestamp": "2025-12-20T03:42:47.788540+00:00",
        "meta_object_name": "COSMOS 2251 DEB",
        "meta_object_id": "1993-036RX",
        "meta_epoch": "2025-12-19T20:18:58.648896",
        "meta_mean_motion": 14.3965244,
        "meta_eccentricity": 0.0060681,
        "meta_inclination": 74.0517,
        "meta_ra_of_asc_node": 290.2496,
        "meta_arg_of_pericenter": 358.2136,
        "meta_mean_anomaly": 1.8792,
        "meta_ephemeris_type": 0,
        "meta_classification_type": "U",
        "meta_norad_cat_id": 34430,
        "meta_element_set_no": 999,
        "meta_rev_at_epoch": 88057,
        "meta_bstar": 0.0003345,
        "meta_mean_motion_dot": 1.042e-05,
        "meta_mean_motion_ddot": 0,
        "tle_line1": "1 34430U 93036RX  25353.84651214  .00001042  00000+0  33450-3 0  9998",
        "tle_line2": "2 34430  74.0517 290.2496 0060681 358.2136   1.8792 14.39652440880574"
      },
      "geometry": {
        "type": "Point",
        "coordinates": [
          103.07501069267609,
          21.915690967938634
        ]
      }
    },
    {
      "type": "Feature",
      "properties": {
        "norad_id": 34431,
        "name": "COSMOS 2251 DEB",
        "group": "cosmos-2251-debris",
        "lat": 48.472544691105455,
        "lon": -37.03209360687242,
        "alt_km": 744.2802259706232,
        "timestamp": "2025-12-20T03:42:47.788551+00:00",
        "meta_object_name": "COSMOS 2251 DEB",
        "meta_object_id": "1993-036RY",
        "meta_epoch": "2025-12-19T10:18:33.991776",
        "meta_mean_motion": 14.28795408,
        "meta_eccentricity": 0.0068008,
        "meta_inclination": 74.0737,
        "meta_ra_of_asc_node": 163.0901,
        "meta_arg_of_pericenter": 147.0162,
        "meta_mean_anomaly": 213.5258,
        "meta_ephemeris_type": 0,
        "meta_classification_type": "U",
        "meta_norad_cat_id": 34431,
        "meta_element_set_no": 999,
        "meta_rev_at_epoch": 87238,
        "meta_bstar": 0.00050275,
        "meta_mean_motion_dot": 1.274e-05,
        "meta_mean_motion_ddot": 0,
        "tle_line1": "1 34431U 93036RY  25353.42956009  .00001274  00000+0  50275-3 0  9994",
        "tle_line2": "2 34431  74.0737 163.0901 0068008 147.0162 213.5258 14.28795408872380"
      },
      "geometry": {
        "type": "Point",
        "coordinates": [
          -37.03209360687242,
          48.472544691105455
        ]
      }
    },
    {
      "type": "Feature",
      "properties": {
        "norad_id": 34432,
        "name": "COSMOS 2251 DEB",
        "group": "cosmos-2251-debris",
        "lat": 13.994975489241996,
        "lon": -94.88537282529141,
        "alt_km": 752.6490737532413,
        "timestamp": "2025-12-20T03:42:47.788561+00:00",
        "meta_object_name": "COSMOS 2251 DEB",
        "meta_object_id": "1993-036RZ",
        "meta_epoch": "2025-12-19T06:32:24.354240",
        "meta_mean_motion": 14.02934229,
        "meta_eccentricity": 0.0181953,
        "meta_inclination": 73.8292,
        "meta_ra_of_asc_node": 90.8154,
        "meta_arg_of_pericenter": 172.489,
        "meta_mean_anomaly": 219.0361,
        "meta_ephemeris_type": 0,
        "meta_classification_type": "U",
        "meta_norad_cat_id": 34432,
        "meta_element_set_no": 999,
        "meta_rev_at_epoch": 85776,
        "meta_bstar": 0.00076949,
        "meta_mean_motion_dot": 1.356e-05,
        "meta_mean_motion_ddot": 0,
        "tle_line1": "1 34432U 93036RZ  25353.27250410  .00001356  00000+0  76949-3 0  9998",
        "tle_line2": "2 34432  73.8292  90.8154 0181953 172.4890 219.0361 14.02934229857765"
      },
      "geometry": {
        "type": "Point",
        "coordinates": [
          -94.88537282529141,
          13.994975489241996
        ]
      }
    },
    {
      "type": "Feature",
      "properties": {
        "norad_id": 34433,
        "name": "COSMOS 2251 DEB",
        "group": "cosmos-2251-debris",
        "lat": 73.30856434493651,
        "lon": -111.18700675760505,
        "alt_km": 952.2860201116309,
        "timestamp": "2025-12-20T03:42:47.788571+00:00",
        "meta_object_name": "COSMOS 2251 DEB",
        "meta_object_id": "1993-036SA",
        "meta_epoch": "2025-12-19T10:15:55.503936",
        "meta_mean_motion": 14.12879998,
        "meta_eccentricity": 0.0152655,
        "meta_inclination": 74.0099,
        "meta_ra_of_asc_node": 143.0939,
        "meta_arg_of_pericenter": 279.7612,
        "meta_mean_anomaly": 78.6318,
        "meta_ephemeris_type": 0,
        "meta_classification_type": "U",
        "meta_norad_cat_id": 34433,
        "meta_element_set_no": 999,
        "meta_rev_at_epoch": 86044,
        "meta_bstar": 0.00077538,
        "meta_mean_motion_dot": 1.585e-05,
        "meta_mean_motion_ddot": 0,
        "tle_line1": "1 34433U 93036SA  25353.42772574  .00001585  00000+0  77538-3 0  9995",
        "tle_line2": "2 34433  74.0099 143.0939 0152655 279.7612  78.6318 14.12879998860448"
      },
      "geometry": {
        "type": "Point",
        "coordinates": [
          -111.18700675760505,
          73.30856434493651
        ]
      }
    }
  ]
}